[{"OBJECT_NAME":"QPS-SAR-5 (TSUKUYOMI-I)","OBJECT_ID":"2023-196A","EPOCH":"2026-03-09T21:54:21.440160","MEAN_MOTION":15.20129575,"ECCENTRICITY":0.00250737,"INCLINATION":42.0101,"RA_OF_ASC_NODE":220.2642,"ARG_OF_PERICENTER":332.3475,"MEAN_ANOMALY":27.6024,"EPHEMERIS_TYPE":0,"CLASSIFICATION_TYPE":"U","NORAD_CAT_ID":58578,"ELEMENT_SET_NO":999,"REV_AT_EPOCH":12312,"BSTAR":0.00079111792,"MEAN_MOTION_DOT":0.00017399,"MEAN_MOTION_DDOT":0},{"OBJECT_NAME":"OBJECT C","OBJECT_ID":"2025-012C","EPOCH":"2026-03-09T23:21:30.920256","MEAN_MOTION":15.25321174,"ECCENTRICITY":0.00067398,"INCLINATION":97.4321,"RA_OF_ASC_NODE":145.036,"ARG_OF_PERICENTER":249.6621,"MEAN_ANOMALY":110.3894,"EPHEMERIS_TYPE":0,"CLASSIFICATION_TYPE":"U","NORAD_CAT_ID":62727,"ELEMENT_SET_NO":999,"REV_AT_EPOCH":6325,"BSTAR":0.0005750193,"MEAN_MOTION_DOT":0.00014438,"MEAN_MOTION_DDOT":0}]
